{
    "links": {
        "self": "http://www.neowsapp.com/rest/v1/neo/3183835?api_key=iIulBulltgU6a56xZRHN4H3l9WmuAYTsLGpBGhQ2"
    },
    "id": "3183835",
    "neo_reference_id": "3183835",
    "name": "(2004 LC)",
    "designation": "2004 LC",
    "nasa_jpl_url": "http://ssd.jpl.nasa.gov/sbdb.cgi?sstr=3183835",
    "absolute_magnitude_h": 24.4,
    "estimated_diameter": {
        "kilometers": {
            "estimated_diameter_min": 0.0350392641,
            "estimated_diameter_max": 0.0783501764
        },
        "meters": {
            "estimated_diameter_min": 35.0392641108,
            "estimated_diameter_max": 78.3501764334
        },
        "miles": {
            "estimated_diameter_min": 0.0217723826,
            "estimated_diameter_max": 0.0486845275
        },
        "feet": {
            "estimated_diameter_min": 114.9582192654,
            "estimated_diameter_max": 257.0543928497
        }
    },
    "is_potentially_hazardous_asteroid": false,
    "close_approach_data": [
        {
            "close_approach_date": "2004-06-06",
            "close_approach_date_full": "2004-Jun-06 05:47",
            "epoch_date_close_approach": 1086500820000,
            "relative_velocity": {
                "kilometers_per_second": "11.0948744376",
                "kilometers_per_hour": "39941.5479752455",
                "miles_per_hour": "24818.1246293963"
            },
            "miss_distance": {
                "astronomical": "0.0217673552",
                "lunar": "8.4675011728",
                "kilometers": "3256349.973453424",
                "miles": "2023402.0471042912"
            },
            "orbiting_body": "Earth"
        },
        {
            "close_approach_date": "2007-06-28",
            "close_approach_date_full": "2007-Jun-28 12:01",
            "epoch_date_close_approach": 1183032060000,
            "relative_velocity": {
                "kilometers_per_second": "17.8368184406",
                "kilometers_per_hour": "64212.5463862003",
                "miles_per_hour": "39899.1791698032"
            },
            "miss_distance": {
                "astronomical": "0.2457909696",
                "lunar": "95.6126871744",
                "kilometers": "36769805.517394752",
                "miles": "22847697.6866894976"
            },
            "orbiting_body": "Earth"
        }
    ],
    "orbital_data": {
        "orbit_id": "13",
        "orbit_determination_date": "2017-04-06 09:12:42",
        "first_observation_date": "2004-06-08",
        "last_observation_date": "2004-06-15",
        "data_arc_in_days": 7,
        "observations_used": 80,
        "orbit_uncertainty": "8",
        "minimum_orbit_intersection": ".013032",
        "jupiter_tisserand_invariant": "3.532",
        "epoch_osculation": "2453166.5",
        "eccentricity": ".5543359243567986",
        "semi_major_axis": "2.098427890085742",
        "inclination": "5.24228694715088",
        "ascending_node_longitude": "245.3601484713472",
        "orbital_period": "1110.297856993579",
        "perihelion_distance": ".9351939259389759",
        "perihelion_argument": "330.0480586671808",
        "aphelion_distance": "3.261661854232509",
        "perihelion_time": "2453131.844849979868",
        "mean_anomaly": "11.2364929182419",
        "mean_motion": ".3242373186009687",
        "equinox": "J2000",
        "orbit_class": {
            "orbit_class_type": "APO",
            "orbit_class_description": "Near-Earth asteroid orbits which cross the Earth’s orbit similar to that of 1862 Apollo",
            "orbit_class_range": "a (semi-major axis) > 1.0 AU; q (perihelion) < 1.017 AU"
        }
    },
    "is_sentry_object": false
}